     3.04           N: GNSS NAV DATA    M: MIXED            RINEX VERSION / TYPE
sbf2rin-15.9.0                          20240624 104231 UTC PGM / RUN BY / DATE 
GPSA   1.8626E-08  2.2352E-08 -1.1921E-07 -5.9605E-08       IONOSPHERIC CORR    
GPSB   1.2902E+05  1.6384E+05 -1.9661E+05 -2.6214E+05       IONOSPHERIC CORR    
GAL    1.6175E+02  6.6016E-01  1.9379E-02  0.0000E+00       IONOSPHERIC CORR    
GPUT -9.3132257462E-10-7.993605777E-15 319488 2320          TIME SYSTEM CORR    
GAUT  9.3132257462E-10 0.000000000E+00  86400 2320          TIME SYSTEM CORR    
GAGP -3.6961864680E-09 3.108624469E-15  86400 2320          TIME SYSTEM CORR    
    18                                                      LEAP SECONDS        
                                                            END OF HEADER       
C04 2024 06 24 08 00 00-6.107675144449E-04-2.674394039559E-11 0.000000000000E+00
     1.000000000000E+00 3.410312500000E+02 1.168655822063E-08-5.447082528966E-01
     1.114327460527E-05 3.200008068234E-04-1.829210668802E-05 6.493419277191E+03
     1.152000000000E+05 1.247972249985E-07-1.327576875866E+00 1.322478055954E-07
     6.344635040659E-02 5.505781250000E+02 4.991935286828E-01-1.044864951391E-08
     1.496490906282E-10 0.000000000000E+00 9.640000000000E+02 0.000000000000E+00
     2.000000000000E+00 0.000000000000E+00 5.500000000000E-09-8.500000000000E-09
     1.152276000000E+05 0.000000000000E+00
C05 2024 06 24 08 00 00-6.629953859374E-04 3.248867841421E-11 0.000000000000E+00
     1.000000000000E+00 3.428593750000E+02 1.168655822063E-08 1.869854313360E+00
     1.130346208811E-05 4.947502166033E-04-1.900363713503E-05 6.493408365250E+03
     1.152000000000E+05-9.429641067982E-07-1.391550985673E+00-4.203990101814E-06
     6.221513660731E-02 5.710625000000E+02 2.661684984606E+00-1.073294707033E-08
    -1.718643016952E-09 0.000000000000E+00 9.640000000000E+02 0.000000000000E+00
     2.000000000000E+00 0.000000000000E+00 1.000000000000E-10-9.400000000000E-09
     1.161276000000E+05 0.000000000000E+00
C06 2024 06 24 08 00 00 5.317954346538E-04 3.284394978209E-11 0.000000000000E+00
     1.000000000000E+00 3.435937500000E+01 1.432202514126E-09 2.195132467393E+00
     1.703854650259E-06 4.147697822191E-03 1.195259392262E-05 6.493229047775E+03
     1.152000000000E+05-1.383014023304E-07-1.782900241637E+00-9.546056389809E-08
     9.459661470585E-01-1.348437500000E+02-2.696416775188E+00-1.827218968147E-09
     1.141833276225E-09 0.000000000000E+00 9.640000000000E+02 0.000000000000E+00
     2.000000000000E+00 0.000000000000E+00 8.500000000000E-09-1.200000000000E-09
     1.152180000000E+05 0.000000000000E+00
C07 2024 06 24 08 00 00-6.098612211645E-04 3.391686931309E-11 0.000000000000E+00
     1.000000000000E+00 1.723906250000E+02 1.363271071426E-09 1.385443386078E-01
     5.736015737057E-06 3.553888644092E-03 2.272985875607E-05 6.493952383041E+03
     1.152000000000E+05-7.450580596924E-08 1.586407909743E-01 2.561137080193E-08
     8.536098085263E-01-5.019062500000E+02-2.644718492284E+00-1.789003090588E-09
    -9.853981886470E-10 0.000000000000E+00 9.640000000000E+02 0.000000000000E+00
     2.000000000000E+00 0.000000000000E+00 1.450000000000E-08 8.000000000000E-10
     1.152180000000E+05 0.000000000000E+00
C08 2024 06 24 08 00 00-2.446221187711E-04-3.872546727735E-11 0.000000000000E+00
     1.000000000000E+00-4.097343750000E+02 7.043150518347E-10-1.379468859364E+00
    -1.343572512269E-05 2.715838956647E-03-1.018820330501E-05 6.493785007477E+03
     1.152000000000E+05-2.281740307808E-08 2.363914351321E+00-1.150183379650E-07
     1.071005933387E+00 5.895625000000E+02 2.985803752654E+00-2.418672175976E-09
    -3.285851154604E-10 0.000000000000E+00 9.640000000000E+02 0.000000000000E+00
     2.000000000000E+00 0.000000000000E+00 1.080000000000E-08-5.000000000000E-10
     1.152180000000E+05 0.000000000000E+00
C10 2024 06 24 08 00 00-4.418601747602E-05-1.838884600147E-11 0.000000000000E+00
     1.000000000000E+00 1.908593750000E+02 1.320769301057E-09-2.305057404607E-01
     6.198417395353E-06 1.001210371032E-02 2.222461625934E-05 6.493001333237E+03
     1.152000000000E+05-9.778887033463E-08 1.531820774712E-01 5.075708031654E-08
     8.559228253756E-01-4.794375000000E+02-2.450759987168E+00-1.808646765969E-09
    -9.839695577102E-10 0.000000000000E+00 9.640000000000E+02 0.000000000000E+00
     2.000000000000E+00 0.000000000000E+00 5.800000000000E-09 3.000000000000E-09
     1.152180000000E+05 0.000000000000E+00
C13 2024 06 24 08 00 00 4.385053180158E-04 4.485301019486E-13 0.000000000000E+00
     1.000000000000E+00-3.973593750000E+02 8.278916278665E-10-2.401566221478E+00
    -1.285970211029E-05 4.703099257313E-03-1.115491613746E-05 6.493516250610E+03
     1.152000000000E+05-1.396983861923E-08 2.333084167646E+00-5.215406417847E-08
     1.033028269911E+00 6.061093750000E+02-2.428384273324E+00-2.506890136322E-09
    -2.825117677491E-10 0.000000000000E+00 9.640000000000E+02 0.000000000000E+00
     2.000000000000E+00 0.000000000000E+00-1.010000000000E-08 2.800000000000E-09
     1.152180000000E+05 0.000000000000E+00
C14 2024 06 24 07 00 00 9.110404644161E-04-3.153033389935E-13 0.000000000000E+00
     2.000000000000E+00-1.809218750000E+02 3.220491289246E-09 2.538883186447E+00
    -8.882954716682E-06 1.306228921749E-03 6.635673344135E-06 5.282641914368E+03
     1.116000000000E+05 7.404014468193E-08 3.059553591625E+00 1.676380634308E-08
     9.763973607892E-01 2.321406250000E+02-1.785472702619E-01-6.642062382845E-09
    -5.321650239522E-11 0.000000000000E+00 9.640000000000E+02 0.000000000000E+00
     2.000000000000E+00 0.000000000000E+00 6.700000000000E-09 2.000000000000E-09
     1.131480000000E+05 1.000000000000E+00
C16 2024 06 24 08 00 00-6.104005733505E-04-2.629718665048E-11 0.000000000000E+00
     1.000000000000E+00 1.848437500000E+01 1.333984137222E-09 1.757584770506E+00
     1.200940459967E-06 7.444839924574E-03 1.213094219565E-05 6.493869810104E+03
     1.152000000000E+05-1.555308699608E-07-1.786253402018E+00-1.247972249985E-07
     9.614878117467E-01-1.331562500000E+02-2.215870014349E+00-1.755430263574E-09
     1.144690538098E-09 0.000000000000E+00 9.640000000000E+02 0.000000000000E+00
     2.000000000000E+00 0.000000000000E+00-3.200000000000E-09 4.700000000000E-09
     1.152180000000E+05 0.000000000000E+00
C23 2024 06 24 08 00 00-7.903922814876E-04-4.254374630364E-12 0.000000000000E+00
     1.000000000000E+00 2.875000000000E+00 4.766627120581E-09 1.076967308468E+00
     2.090819180012E-07 3.172361757606E-04 4.973262548447E-06 5.282636354446E+03
     1.152000000000E+05-2.840533852577E-08-1.129853492556E+00-1.676380634308E-08
     9.443074173943E-01 2.549531250000E+02-1.443165813489E+00-7.059936931854E-09
     1.014327965117E-10 0.000000000000E+00 9.640000000000E+02 0.000000000000E+00
     2.000000000000E+00 0.000000000000E+00 2.190000000000E-08 2.190000000000E-08
     1.152180000000E+05 1.000000000000E+00
C24 2024 06 24 08 00 00 8.962498977780E-04-8.380851568290E-12 0.000000000000E+00
     1.000000000000E+00-1.531250000000E+00 4.760555439100E-09 7.679242696425E-01
    -1.327134668827E-07 4.623234272003E-04 4.998873919249E-06 5.282626380920E+03
     1.152000000000E+05 5.960464477539E-08-1.130037243844E+00-2.188608050346E-08
     9.443006089736E-01 2.518906250000E+02 4.367980303684E-01-7.100652913552E-09
     5.071639825584E-11 0.000000000000E+00 9.640000000000E+02 0.000000000000E+00
     2.000000000000E+00 0.000000000000E+00 3.900000000000E-09 3.900000000000E-09
     1.152180000000E+05 1.000000000000E+00
C25 2024 06 24 08 00 00 4.338662838563E-04 9.731770944654E-12 0.000000000000E+00
     1.000000000000E+00 2.859375000000E+00 4.729839873959E-09-1.209508937245E-01
     1.569278538227E-07 4.251323407516E-04 5.229376256466E-06 5.282608539581E+03
     1.152000000000E+05-1.490116119385E-08-1.153659327319E+00-2.235174179077E-08
     9.458169820794E-01 2.514218750000E+02 5.392475761575E-01-7.032435786321E-09
     9.321816862518E-11 0.000000000000E+00 9.640000000000E+02 0.000000000000E+00
     2.000000000000E+00 0.000000000000E+00 4.000000000000E-10 4.000000000000E-10
     1.152180000000E+05 1.000000000000E+00
C27 2024 06 24 08 00 00 3.314028726891E-04 5.240252676231E-12 0.000000000000E+00
     1.000000000000E+00 1.539218750000E+02 3.630508368103E-09 1.532056442037E+00
     7.393769919872E-06 6.841280264780E-04 7.153023034334E-06 5.282624349594E+03
     1.152000000000E+05 0.000000000000E+00 9.725180502175E-01-1.164153218269E-08
     9.587000370190E-01 2.145625000000E+02 1.443512716716E+00-6.772782113560E-09
    -6.535986535788E-11 0.000000000000E+00 9.640000000000E+02 0.000000000000E+00
     2.000000000000E+00 0.000000000000E+00-4.600000000000E-09-4.600000000000E-09
     1.152180000000E+05 1.000000000000E+00
C28 2024 06 24 08 00 00 2.548841293901E-04 4.260591879302E-12 0.000000000000E+00
     1.000000000000E+00 1.536875000000E+02 3.731941164615E-09 1.287965277724E-01
     7.617287337780E-06 9.851367212832E-05 7.171649485826E-06 5.282637218475E+03
     1.152000000000E+05 1.350417733192E-08 9.722648483564E-01-1.676380634308E-08
     9.585770743656E-01 2.115781250000E+02-2.741486747436E+00-6.818855461272E-09
    -3.000124967247E-11 0.000000000000E+00 9.640000000000E+02 0.000000000000E+00
     2.000000000000E+00 0.000000000000E+00-4.700000000000E-09-4.700000000000E-09
     1.152180000000E+05 1.000000000000E+00
C30 2024 06 24 08 00 00-1.120580127463E-04-1.093258816809E-11 0.000000000000E+00
     1.000000000000E+00 1.515156250000E+02 3.560862609935E-09 1.409251557121E+00
     7.417984306812E-06 4.721764707938E-04 7.316935807467E-06 5.282623054504E+03
     1.152000000000E+05-5.587935447693E-09 9.329797076983E-01-1.629814505577E-08
     9.566451257322E-01 2.131562500000E+02 8.372369727491E-01-6.725637292646E-09
    -6.321691895271E-11 0.000000000000E+00 9.640000000000E+02 0.000000000000E+00
     2.000000000000E+00 0.000000000000E+00-9.800000000000E-09-9.800000000000E-09
     1.152180000000E+05 1.000000000000E+00
